{"type": "FeatureCollection", "features": [ {"type": "Feature", "properties": {"norad_id": 58662, "name": "TIANMU-1 21", "group": "weather", "lat": 55.62543536643424, "lon": 82.30568456418706, "alt_km": 469.0372944622195, "timestamp": "2025-12-05T22:40:48.203053+00:00", "meta": {"OBJECT_NAME": "TIANMU-1 21", "OBJECT_ID": "2023-208C", "EPOCH": "2025-12-05T06:45:07.147008", "MEAN_MOTION": 15.31309151, "ECCENTRICITY": 0.00059385, "INCLINATION": 97.4382, "RA_OF_ASC_NODE": 92.6504, "ARG_OF_PERICENTER": 291.513, "MEAN_ANOMALY": 68.5477, "EPHEMERIS_TYPE": 0, "CLASSIFICATION_TYPE": "U", "NORAD_CAT_ID": 58662, "ELEMENT_SET_NO": 999, "REV_AT_EPOCH": 10785, "BSTAR": 0.00063241604, "MEAN_MOTION_DOT": 0.00019082, "MEAN_MOTION_DDOT": 0}, "tle": {"line1": "1 58662U 23208C   25339.28133272  .00019082  00000+0  63242-3 0  9991", "line2": "2 58662  97.4382  92.6504 0005938 291.5130  68.5477 15.31309151107851"}}, "geometry": {"type": "Point", "coordinates": [82.30568456418706, 55.62543536643424]}}, {"type": "Feature", "properties": {"norad_id": 58663, "name": "TIANMU-1 22", "group": "weather", "lat": 72.79934937189581, "lon": 66.09267864635079, "alt_km": 477.3629094208318, "timestamp": "2025-12-05T22:40:48.203063+00:00", "meta": {"OBJECT_NAME": "TIANMU-1 22", "OBJECT_ID": "2023-208D", "EPOCH": "2025-12-05T06:37:56.984736", "MEAN_MOTION": 15.27410933, "ECCENTRICITY": 0.00029869, "INCLINATION": 97.4391, "RA_OF_ASC_NODE": 90.3923, "ARG_OF_PERICENTER": 322.7197, "MEAN_ANOMALY": 37.3834, "EPHEMERIS_TYPE": 0, "CLASSIFICATION_TYPE": "U", "NORAD_CAT_ID": 58663, "ELEMENT_SET_NO": 999, "REV_AT_EPOCH": 10769, "BSTAR": 0.00056944108, "MEAN_MOTION_DOT": 0.00015222, "MEAN_MOTION_DDOT": 0}, "tle": {"line1": "1 58663U 23208D   25339.27635399  .00015222  00000+0  56944-3 0  9991", "line2": "2 58663  97.4391  90.3923 0002986 322.7197  37.3834 15.27410933107691"}}, "geometry": {"type": "Point", "coordinates": [66.09267864635079, 72.79934937189581]}}, {"type": "Feature", "properties": {"norad_id": 58700, "name": "TIANMU-1 15", "group": "weather", "lat": -81.15503894885326, "lon": -141.17397360370393, "alt_km": 497.13479054029995, "timestamp": "2025-12-05T22:40:48.203073+00:00", "meta": {"OBJECT_NAME": "TIANMU-1 15", "OBJECT_ID": "2024-004A", "EPOCH": "2025-12-05T07:18:02.195712", "MEAN_MOTION": 15.24528541, "ECCENTRICITY": 0.00056312, "INCLINATION": 97.4624, "RA_OF_ASC_NODE": 160.8007, "ARG_OF_PERICENTER": 328.9866, "MEAN_ANOMALY": 31.1038, "EPHEMERIS_TYPE": 0, "CLASSIFICATION_TYPE": "U", "NORAD_CAT_ID": 58700, "ELEMENT_SET_NO": 999, "REV_AT_EPOCH": 10621, "BSTAR": 0.00048082775, "MEAN_MOTION_DOT": 0.00011771, "MEAN_MOTION_DDOT": 0}, "tle": {"line1": "1 58700U 24004A   25339.30419208  .00011771  00000+0  48083-3 0  9991", "line2": "2 58700  97.4624 160.8007 0005631 328.9866  31.1038 15.24528541106216"}}, "geometry": {"type": "Point", "coordinates": [-141.17397360370393, -81.15503894885326]}}, {"type": "Feature", "properties": {"norad_id": 58701, "name": "TIANMU-1 16", "group": "weather", "lat": 2.5739928073614013, "lon": 160.49812800169926, "alt_km": 493.03109552899514, "timestamp": "2025-12-05T22:40:48.203083+00:00", "meta": {"OBJECT_NAME": "TIANMU-1 16", "OBJECT_ID": "2024-004B", "EPOCH": "2025-12-05T17:56:31.795008", "MEAN_MOTION": 15.24287379, "ECCENTRICITY": 0.0004871, "INCLINATION": 97.4567, "RA_OF_ASC_NODE": 160.6391, "ARG_OF_PERICENTER": 325.5818, "MEAN_ANOMALY": 34.5104, "EPHEMERIS_TYPE": 0, "CLASSIFICATION_TYPE": "U", "NORAD_CAT_ID": 58701, "ELEMENT_SET_NO": 999, "REV_AT_EPOCH": 10628, "BSTAR": 8.9284e-05, "MEAN_MOTION_DOT": 2.109e-05, "MEAN_MOTION_DDOT": 0}, "tle": {"line1": "1 58701U 24004B   25339.74759022  .00002109  00000+0  89284-4 0  9995", "line2": "2 58701  97.4567 160.6391 0004871 325.5818  34.5104 15.24287379106281"}}, "geometry": {"type": "Point", "coordinates": [160.49812800169926, 2.5739928073614013]}}, {"type": "Feature", "properties": {"norad_id": 58702, "name": "TIANMU-1 17", "group": "weather", "lat": 81.5940800859734, "lon": 98.78460852507398, "alt_km": 486.6400851815197, "timestamp": "2025-12-05T22:40:48.203093+00:00", "meta": {"OBJECT_NAME": "TIANMU-1 17", "OBJECT_ID": "2024-004C", "EPOCH": "2025-12-05T06:32:56.603904", "MEAN_MOTION": 15.2432418, "ECCENTRICITY": 0.00041802, "INCLINATION": 97.4595, "RA_OF_ASC_NODE": 160.573, "ARG_OF_PERICENTER": 331.3683, "MEAN_ANOMALY": 28.7324, "EPHEMERIS_TYPE": 0, "CLASSIFICATION_TYPE": "U", "NORAD_CAT_ID": 58702, "ELEMENT_SET_NO": 999, "REV_AT_EPOCH": 10620, "BSTAR": 0.00049179219, "MEAN_MOTION_DOT": 0.00011966, "MEAN_MOTION_DDOT": 0}, "tle": {"line1": "1 58702U 24004C   25339.27287736  .00011966  00000+0  49179-3 0  9991", "line2": "2 58702  97.4595 160.5730 0004180 331.3683  28.7324 15.24324180106200"}}, "geometry": {"type": "Point", "coordinates": [98.78460852507398, 81.5940800859734]}}, {"type": "Feature", "properties": {"norad_id": 58703, "name": "TIANMU-1 18", "group": "weather", "lat": 2.0050979502999335, "lon": -18.301312812100722, "alt_km": 497.78242507122377, "timestamp": "2025-12-05T22:40:48.203104+00:00", "meta": {"OBJECT_NAME": "TIANMU-1 18", "OBJECT_ID": "2024-004D", "EPOCH": "2025-12-05T07:43:22.046016", "MEAN_MOTION": 15.24316923, "ECCENTRICITY": 0.00035396, "INCLINATION": 97.4613, "RA_OF_ASC_NODE": 160.8154, "ARG_OF_PERICENTER": 332.6683, "MEAN_ANOMALY": 27.4368, "EPHEMERIS_TYPE": 0, "CLASSIFICATION_TYPE": "U", "NORAD_CAT_ID": 58703, "ELEMENT_SET_NO": 999, "REV_AT_EPOCH": 10621, "BSTAR": 0.00048376536, "MEAN_MOTION_DOT": 0.00011766, "MEAN_MOTION_DDOT": 0}, "tle": {"line1": "1 58703U 24004D   25339.32178294  .00011766  00000+0  48377-3 0  9993", "line2": "2 58703  97.4613 160.8154 0003539 332.6683  27.4368 15.24316923106217"}}, "geometry": {"type": "Point", "coordinates": [-18.301312812100722, 2.0050979502999335]}}, {"type": "Feature", "properties": {"norad_id": 58990, "name": "INSAT-3DS", "group": "weather", "lat": 0.017473695825352242, "lon": 137.23626302097145, "alt_km": 35791.090300095006, "timestamp": "2025-12-05T22:40:48.203115+00:00", "meta": {"OBJECT_NAME": "INSAT-3DS", "OBJECT_ID": "2024-033A", "EPOCH": "2025-12-05T03:42:38.812896", "MEAN_MOTION": 1.00268596, "ECCENTRICITY": 0.00017602, "INCLINATION": 0.0112, "RA_OF_ASC_NODE": 0.2967, "ARG_OF_PERICENTER": 260.1879, "MEAN_ANOMALY": 311.474, "EPHEMERIS_TYPE": 0, "CLASSIFICATION_TYPE": "U", "NORAD_CAT_ID": 58990, "ELEMENT_SET_NO": 999, "REV_AT_EPOCH": 4512, "BSTAR": 0, "MEAN_MOTION_DOT": 0, "MEAN_MOTION_DDOT": 0}, "tle": {"line1": "1 58990U 24033A   25339.15461589  .00000000  00000+0  00000+0 0  9992", "line2": "2 58990   0.0112   0.2967 0001760 260.1879 311.4740  1.00268596 45127"}}, "geometry": {"type": "Point", "coordinates": [137.23626302097145, 0.017473695825352242]}}, {"type": "Feature", "properties": {"norad_id": 59051, "name": "METEOR-M2 4", "group": "weather", "lat": -36.3461447336976, "lon": -56.58886302816642, "alt_km": 820.399792373757, "timestamp": "2025-12-05T22:40:48.203126+00:00", "meta": {"OBJECT_NAME": "METEOR-M2 4", "OBJECT_ID": "2024-039A", "EPOCH": "2025-12-05T07:39:30.588192", "MEAN_MOTION": 14.22399434, "ECCENTRICITY": 0.00074469, "INCLINATION": 98.6755, "RA_OF_ASC_NODE": 296.3447, "ARG_OF_PERICENTER": 19.3703, "MEAN_ANOMALY": 340.7757, "EPHEMERIS_TYPE": 0, "CLASSIFICATION_TYPE": "U", "NORAD_CAT_ID": 59051, "ELEMENT_SET_NO": 999, "REV_AT_EPOCH": 9170, "BSTAR": 5.4001329e-05, "MEAN_MOTION_DOT": 7.7e-07, "MEAN_MOTION_DDOT": 0}, "tle": {"line1": "1 59051U 24039A   25339.31910403  .00000077  00000+0  54001-4 0  9998", "line2": "2 59051  98.6755 296.3447 0007446  19.3703 340.7757 14.22399434 91702"}}, "geometry": {"type": "Point", "coordinates": [-56.58886302816642, -36.3461447336976]}}, {"type": "Feature", "properties": {"norad_id": 60133, "name": "GOES 19", "group": "weather", "lat": 3.850416644572623e-05, "lon": -19.99346100902413, "alt_km": 35782.19655818723, "timestamp": "2025-12-05T22:40:48.203140+00:00", "meta": {"OBJECT_NAME": "GOES 19", "OBJECT_ID": "2024-119A", "EPOCH": "2025-12-05T06:07:38.867808", "MEAN_MOTION": 1.00270371, "ECCENTRICITY": 0.00013849, "INCLINATION": 0.0122, "RA_OF_ASC_NODE": 83.1931, "ARG_OF_PERICENTER": 215.2345, "MEAN_ANOMALY": 152.6178, "EPHEMERIS_TYPE": 0, "CLASSIFICATION_TYPE": "U", "NORAD_CAT_ID": 60133, "ELEMENT_SET_NO": 999, "REV_AT_EPOCH": 502, "BSTAR": 0, "MEAN_MOTION_DOT": -2.36e-06, "MEAN_MOTION_DDOT": 0}, "tle": {"line1": "1 60133U 24119A   25339.25531097 -.00000236  00000+0  00000+0 0  9994", "line2": "2 60133   0.0122  83.1931 0001384 215.2345 152.6178  1.00270371  5021"}}, "geometry": {"type": "Point", "coordinates": [-19.99346100902413, 3.850416644572623e-05]}}, {"type": "Feature", "properties": {"norad_id": 65815, "name": "FENGYUN 3H", "group": "weather", "lat": -79.04308613661706, "lon": 47.78060883555695, "alt_km": 833.4429507179657, "timestamp": "2025-12-05T22:40:48.203151+00:00", "meta": {"OBJECT_NAME": "FENGYUN 3H", "OBJECT_ID": "2025-219A", "EPOCH": "2025-12-05T06:13:22.889280", "MEAN_MOTION": 14.19901396, "ECCENTRICITY": 6.147e-05, "INCLINATION": 98.6573, "RA_OF_ASC_NODE": 279.0125, "ARG_OF_PERICENTER": 74.8797, "MEAN_ANOMALY": 285.2447, "EPHEMERIS_TYPE": 0, "CLASSIFICATION_TYPE": "U", "NORAD_CAT_ID": 65815, "ELEMENT_SET_NO": 999, "REV_AT_EPOCH": 986, "BSTAR": 0.00011293277, "MEAN_MOTION_DOT": 1.97e-06, "MEAN_MOTION_DDOT": 0}, "tle": {"line1": "1 65815U 25219A   25339.25929270  .00000197  00000+0  11293-3 0  9997", "line2": "2 65815  98.6573 279.0125 0000614  74.8797 285.2447 14.19901396  9862"}}, "geometry": {"type": "Point", "coordinates": [47.78060883555695, -79.04308613661706]}}]}